IRIDIUM 155             
1 43573U 18061E   25229.61803781  .00000081  00000+0  21992-4 0  9997
2 43573  86.4022 183.5233 0002096  92.0331 268.1105 14.34217690369857
IRIDIUM 154             
1 43574U 18061F   25229.87808470  .00000043  00000+0  83134-5 0  9991
2 43574  86.4025 183.5329 0002273  85.8814 274.2642 14.34217788369931
IRIDIUM 163             
1 43575U 18061G   25229.85905592 -.00000064  00000+0 -29881-4 0  9996
2 43575  86.4026 183.4664 0002019  83.3053 276.8372 14.34217616369905
IRIDIUM 156             
1 43576U 18061H   25229.34530673  .00000061  00000+0  14825-4 0  9992
2 43576  86.4023 183.6873 0002202  93.9366 266.2082 14.34217926369821
IRIDIUM 164             
1 43577U 18061J   25229.88442759  .00000040  00000+0  71010-5 0  9996
2 43577  86.4025 183.4978 0002488  87.0265 273.1216 14.34217872369945
IRIDIUM 159             
1 43578U 18061K   25229.85271461  .00000062  00000+0  14924-4 0  9998
2 43578  86.4023 183.4543 0002398  80.6963 279.4504 14.34217593369901
IRIDIUM 180             
1 43922U 19002A   25229.78244109  .00000070  00000+0  17826-4 0  9991
2 43922  86.3977 120.4609 0002077  83.0672 277.0760 14.34218039345541
IRIDIUM 176             
1 43923U 19002B   25229.61522024  .00000775  00000+0  11893-3 0  9998
2 43923  86.6101 120.5180 0001849  98.5289 261.6138 14.72252927354588
IRIDIUM 168             
1 43924U 19002C   25229.77609893  .00000031  00000+0  41173-5 0  9997
2 43924  86.3980 120.5324 0002129  84.2763 275.8675 14.34217548345482
IRIDIUM 173             
1 43925U 19002D   25229.41457044  .00000146  00000+0  45209-4 0  9998
2 43925  86.3976 120.5846 0001973  84.6936 275.4485 14.34218019345411
IRIDIUM 169             
1 43926U 19002E   25229.84997200  .00000281  00000+0  85417-4 0  9994
2 43926  86.4287 152.0019 0001292 117.0690 243.0640 14.38608648346614
IRIDIUM 172             
1 43927U 19002F   25229.75706925  .00000143  00000+0  44039-4 0  9999
2 43927  86.3976 120.4485 0002116  77.3037 282.8395 14.34217561345471
IRIDIUM 175             
1 43928U 19002G   25229.61028070  .00000612  00000+0  93157-4 0  9999
2 43928  86.1451  69.5202 0002835 104.9735 255.1796 14.72243118354576
IRIDIUM 171             
1 43929U 19002H   25229.45896974  .00000016  00000+0 -12779-5 0  9999
2 43929  86.3987 120.8456 0002270  89.9554 270.1902 14.34217357345423
IRIDIUM 170             
1 43930U 19002J   25229.41747882  .00000651  00000+0  99348-4 0  9990
2 43930  86.6102 120.6049 0002360  89.1345 271.0143 14.72258184354560
IRIDIUM 167             
1 43931U 19002K   25229.45262673 -.00000004  00000+0 -83899-5 0  9994
2 43931  86.3977 120.5953 0002125  96.5407 263.6030 14.34217359345425
IRIDIUM 181             
1 56726U 23068S   25229.30506231  .00000350  00000+0  98098-4 0  9990
2 56726  86.4563 183.7248 0002915  87.7532 272.4003 14.43314095118600
IRIDIUM 177             
1 56727U 23068T   25229.72376894  .00000749  00000+0  95090-4 0  9998
2 56727  86.1964 112.9287 0002462  91.9639 268.1864 14.80228223121476
IRIDIUM 174             
1 56728U 23068U   25229.74497547  .00000757  00000+0  11610-3 0  9994
2 56728  86.6109 120.5847 0001898  80.1088 280.0343 14.72253459121374
IRIDIUM 178             
1 56729U 23068V   25229.51005748  .00000695  00000+0  87951-4 0  9991
2 56729  86.6603 152.2583 0002319  84.5148 275.6338 14.80235582121445
IRIDIUM 179             
1 56730U 23068W   25229.77510559  .00001172  00000+0  15087-3 0  9993
2 56730  86.6851 160.2026 0002385  91.2139 268.9356 14.80232918121480
